{"type": "FeatureCollection", "features": [ {"type": "Feature", "properties": {"norad_id": 30396, "name": "FENGYUN 1C DEB", "group": "fengyun-1c-debris", "lat": -15.001871050099126, "lon": 1.1865398492774397, "alt_km": 994.0747004943678, "timestamp": "2025-12-21T03:56:51.112362+00:00", "meta": {"OBJECT_NAME": "FENGYUN 1C DEB", "OBJECT_ID": "1999-025ADK", "EPOCH": "2025-12-20T18:29:11.251104", "MEAN_MOTION": 13.87171075, "ECCENTRICITY": 0.0135207, "INCLINATION": 98.2238, "RA_OF_ASC_NODE": 358.6184, "ARG_OF_PERICENTER": 107.6585, "MEAN_ANOMALY": 71.0923, "EPHEMERIS_TYPE": 0, "CLASSIFICATION_TYPE": "U", "NORAD_CAT_ID": 30396, "ELEMENT_SET_NO": 999, "REV_AT_EPOCH": 95690, "BSTAR": 8.6034e-05, "MEAN_MOTION_DOT": 7.4e-07, "MEAN_MOTION_DDOT": 0}, "tle": {"line1": "1 30396U 99025ADK 25354.77026911  .00000074  00000+0  86034-4 0  9993", "line2": "2 30396  98.2238 358.6184 0135207 107.6585  71.0923 13.87171075956901"}}, "geometry": {"type": "Point", "coordinates": [1.1865398492774397, -15.001871050099126]}}, {"type": "Feature", "properties": {"norad_id": 30397, "name": "FENGYUN 1C DEB", "group": "fengyun-1c-debris", "lat": -38.84936118654405, "lon": -44.16633561212011, "alt_km": 999.1912613300701, "timestamp": "2025-12-21T03:56:51.112372+00:00", "meta": {"OBJECT_NAME": "FENGYUN 1C DEB", "OBJECT_ID": "1999-025ADL", "EPOCH": "2025-12-20T00:01:14.155392", "MEAN_MOTION": 13.98608758, "ECCENTRICITY": 0.0149596, "INCLINATION": 98.4058, "RA_OF_ASC_NODE": 141.6061, "ARG_OF_PERICENTER": 72.2054, "MEAN_ANOMALY": 50.6258, "EPHEMERIS_TYPE": 0, "CLASSIFICATION_TYPE": "U", "NORAD_CAT_ID": 30397, "ELEMENT_SET_NO": 999, "REV_AT_EPOCH": 95866, "BSTAR": 0.00082208, "MEAN_MOTION_DOT": 1.26e-05, "MEAN_MOTION_DDOT": 0}, "tle": {"line1": "1 30397U 99025ADL 25354.00085828  .00001260  00000+0  82208-3 0  9998", "line2": "2 30397  98.4058 141.6061 0149596  72.2054  50.6258 13.98608758958666"}}, "geometry": {"type": "Point", "coordinates": [-44.16633561212011, -38.84936118654405]}}, {"type": "Feature", "properties": {"norad_id": 30398, "name": "FENGYUN 1C DEB", "group": "fengyun-1c-debris", "lat": 34.20651367773044, "lon": -114.7924385894432, "alt_km": 1029.4388391924213, "timestamp": "2025-12-21T03:56:51.112381+00:00", "meta": {"OBJECT_NAME": "FENGYUN 1C DEB", "OBJECT_ID": "1999-025ADM", "EPOCH": "2025-12-19T17:03:56.542176", "MEAN_MOTION": 13.78704658, "ECCENTRICITY": 0.01725451, "INCLINATION": 99.7144, "RA_OF_ASC_NODE": 250.4057, "ARG_OF_PERICENTER": 277.8534, "MEAN_ANOMALY": 105.3265, "EPHEMERIS_TYPE": 0, "CLASSIFICATION_TYPE": "U", "NORAD_CAT_ID": 30398, "ELEMENT_SET_NO": 999, "REV_AT_EPOCH": 94853, "BSTAR": 0.00034305655, "MEAN_MOTION_DOT": 3.41e-06, "MEAN_MOTION_DDOT": 0}, "tle": {"line1": "1 30398U 99025ADM 25353.71107109  .00000341  00000+0  34306-3 0  9998", "line2": "2 30398  99.7144 250.4057 0172545 277.8534 105.3265 13.78704658948532"}}, "geometry": {"type": "Point", "coordinates": [-114.7924385894432, 34.20651367773044]}}, {"type": "Feature", "properties": {"norad_id": 30400, "name": "FENGYUN 1C DEB", "group": "fengyun-1c-debris", "lat": 80.79722034057049, "lon": -161.76702054994385, "alt_km": 968.8768465011735, "timestamp": "2025-12-21T03:56:51.112390+00:00", "meta": {"OBJECT_NAME": "FENGYUN 1C DEB", "OBJECT_ID": "1999-025ADP", "EPOCH": "2025-12-20T07:41:43.314144", "MEAN_MOTION": 14.10096404, "ECCENTRICITY": 0.02263136, "INCLINATION": 99.1571, "RA_OF_ASC_NODE": 281.984, "ARG_OF_PERICENTER": 314.8538, "MEAN_ANOMALY": 171.2043, "EPHEMERIS_TYPE": 0, "CLASSIFICATION_TYPE": "U", "NORAD_CAT_ID": 30400, "ELEMENT_SET_NO": 999, "REV_AT_EPOCH": 95621, "BSTAR": 0.0027997351, "MEAN_MOTION_DOT": 6.235e-05, "MEAN_MOTION_DDOT": 0}, "tle": {"line1": "1 30400U 99025ADP 25354.32064021  .00006235  00000+0  27997-2 0  9990", "line2": "2 30400  99.1571 281.9840 0226313 314.8538 171.2043 14.10096404956212"}}, "geometry": {"type": "Point", "coordinates": [-161.76702054994385, 80.79722034057049]}}, {"type": "Feature", "properties": {"norad_id": 30401, "name": "FENGYUN 1C DEB", "group": "fengyun-1c-debris", "lat": -65.36900358989011, "lon": -107.64317704927939, "alt_km": 882.0331689496934, "timestamp": "2025-12-21T03:56:51.112400+00:00", "meta": {"OBJECT_NAME": "FENGYUN 1C DEB", "OBJECT_ID": "1999-025ADQ", "EPOCH": "2025-12-20T14:48:44.066880", "MEAN_MOTION": 14.2799694, "ECCENTRICITY": 0.0108077, "INCLINATION": 98.947, "RA_OF_ASC_NODE": 231.6999, "ARG_OF_PERICENTER": 104.8279, "MEAN_ANOMALY": 256.4903, "EPHEMERIS_TYPE": 0, "CLASSIFICATION_TYPE": "U", "NORAD_CAT_ID": 30401, "ELEMENT_SET_NO": 999, "REV_AT_EPOCH": 98416, "BSTAR": 0.00010378, "MEAN_MOTION_DOT": 2.28e-06, "MEAN_MOTION_DDOT": 0}, "tle": {"line1": "1 30401U 99025ADQ 25354.61717670  .00000228  00000+0  10378-3 0  9990", "line2": "2 30401  98.9470 231.6999 0108077 104.8279 256.4903 14.27996940984168"}}, "geometry": {"type": "Point", "coordinates": [-107.64317704927939, -65.36900358989011]}}, {"type": "Feature", "properties": {"norad_id": 30403, "name": "FENGYUN 1C DEB", "group": "fengyun-1c-debris", "lat": -80.84577504619024, "lon": 171.87201073480998, "alt_km": 826.4089251415153, "timestamp": "2025-12-21T03:56:51.112409+00:00", "meta": {"OBJECT_NAME": "FENGYUN 1C DEB", "OBJECT_ID": "1999-025ADS", "EPOCH": "2025-12-20T18:14:13.865280", "MEAN_MOTION": 14.21589805, "ECCENTRICITY": 0.0074426, "INCLINATION": 99.0596, "RA_OF_ASC_NODE": 73.3959, "ARG_OF_PERICENTER": 359.3578, "MEAN_ANOMALY": 0.7491, "EPHEMERIS_TYPE": 0, "CLASSIFICATION_TYPE": "U", "NORAD_CAT_ID": 30403, "ELEMENT_SET_NO": 999, "REV_AT_EPOCH": 96920, "BSTAR": 0.001238, "MEAN_MOTION_DOT": 2.745e-05, "MEAN_MOTION_DDOT": 0}, "tle": {"line1": "1 30403U 99025ADS 25354.75988270  .00002745  00000+0  12380-2 0  9993", "line2": "2 30403  99.0596  73.3959 0074426 359.3578   0.7491 14.21589805969209"}}, "geometry": {"type": "Point", "coordinates": [171.87201073480998, -80.84577504619024]}}, {"type": "Feature", "properties": {"norad_id": 30404, "name": "FENGYUN 1C DEB", "group": "fengyun-1c-debris", "lat": -36.82336551965202, "lon": -100.83401159292254, "alt_km": 1180.0933560744925, "timestamp": "2025-12-21T03:56:51.112418+00:00", "meta": {"OBJECT_NAME": "FENGYUN 1C DEB", "OBJECT_ID": "1999-025ADT", "EPOCH": "2025-12-19T23:54:32.428224", "MEAN_MOTION": 13.34354549, "ECCENTRICITY": 0.03762973, "INCLINATION": 99.8326, "RA_OF_ASC_NODE": 85.5019, "ARG_OF_PERICENTER": 119.2039, "MEAN_ANOMALY": 244.7273, "EPHEMERIS_TYPE": 0, "CLASSIFICATION_TYPE": "U", "NORAD_CAT_ID": 30404, "ELEMENT_SET_NO": 999, "REV_AT_EPOCH": 58133, "BSTAR": 0.00058436057, "MEAN_MOTION_DOT": 3.95e-06, "MEAN_MOTION_DDOT": 0}, "tle": {"line1": "1 30404U 99025ADT 25353.99620866  .00000395  00000+0  58436-3 0  9995", "line2": "2 30404  99.8326  85.5019 0376297 119.2039 244.7273 13.34354549581337"}}, "geometry": {"type": "Point", "coordinates": [-100.83401159292254, -36.82336551965202]}}, {"type": "Feature", "properties": {"norad_id": 30405, "name": "FENGYUN 1C DEB", "group": "fengyun-1c-debris", "lat": -49.01725979509887, "lon": 99.48531997346132, "alt_km": 838.6311475630582, "timestamp": "2025-12-21T03:56:51.112427+00:00", "meta": {"OBJECT_NAME": "FENGYUN 1C DEB", "OBJECT_ID": "1999-025ADU", "EPOCH": "2025-12-20T11:59:31.679808", "MEAN_MOTION": 14.28975784, "ECCENTRICITY": 0.0051098, "INCLINATION": 98.7941, "RA_OF_ASC_NODE": 88.5508, "ARG_OF_PERICENTER": 131.7896, "MEAN_ANOMALY": 0.4402, "EPHEMERIS_TYPE": 0, "CLASSIFICATION_TYPE": "U", "NORAD_CAT_ID": 30405, "ELEMENT_SET_NO": 999, "REV_AT_EPOCH": 97506, "BSTAR": 0.0010577, "MEAN_MOTION_DOT": 2.668e-05, "MEAN_MOTION_DDOT": 0}, "tle": {"line1": "1 30405U 99025ADU 25354.49967222  .00002668  00000+0  10577-2 0  9990", "line2": "2 30405  98.7941  88.5508 0051098 131.7896   0.4402 14.28975784975066"}}, "geometry": {"type": "Point", "coordinates": [99.48531997346132, -49.01725979509887]}}, {"type": "Feature", "properties": {"norad_id": 30406, "name": "FENGYUN 1C DEB", "group": "fengyun-1c-debris", "lat": -40.384862467055, "lon": -107.75720034415806, "alt_km": 845.596021103057, "timestamp": "2025-12-21T03:56:51.112436+00:00", "meta": {"OBJECT_NAME": "FENGYUN 1C DEB", "OBJECT_ID": "1999-025ADV", "EPOCH": "2025-12-20T15:54:35.748864", "MEAN_MOTION": 13.59242345, "ECCENTRICITY": 0.0283085, "INCLINATION": 98.6211, "RA_OF_ASC_NODE": 244.3867, "ARG_OF_PERICENTER": 339.3478, "MEAN_ANOMALY": 47.8364, "EPHEMERIS_TYPE": 0, "CLASSIFICATION_TYPE": "U", "NORAD_CAT_ID": 30406, "ELEMENT_SET_NO": 999, "REV_AT_EPOCH": 93274, "BSTAR": 0.0016264, "MEAN_MOTION_DOT": 1.522e-05, "MEAN_MOTION_DDOT": 0}, "tle": {"line1": "1 30406U 99025ADV 25354.66291376  .00001522  00000+0  16264-2 0  9997", "line2": "2 30406  98.6211 244.3867 0283085 339.3478  47.8364 13.59242345932744"}}, "geometry": {"type": "Point", "coordinates": [-107.75720034415806, -40.384862467055]}}, {"type": "Feature", "properties": {"norad_id": 30409, "name": "FENGYUN 1C DEB", "group": "fengyun-1c-debris", "lat": -29.769496690824457, "lon": -13.125600314872475, "alt_km": 767.4571435912776, "timestamp": "2025-12-21T03:56:51.112445+00:00", "meta": {"OBJECT_NAME": "FENGYUN 1C DEB", "OBJECT_ID": "1999-025ADY", "EPOCH": "2025-12-19T23:18:48.362976", "MEAN_MOTION": 14.03755513, "ECCENTRICITY": 0.0167704, "INCLINATION": 98.4735, "RA_OF_ASC_NODE": 340.8701, "ARG_OF_PERICENTER": 345.2506, "MEAN_ANOMALY": 79.1896, "EPHEMERIS_TYPE": 0, "CLASSIFICATION_TYPE": "U", "NORAD_CAT_ID": 30409, "ELEMENT_SET_NO": 999, "REV_AT_EPOCH": 96531, "BSTAR": 0.00066171, "MEAN_MOTION_DOT": 1.139e-05, "MEAN_MOTION_DDOT": 0}, "tle": {"line1": "1 30409U 99025ADY 25353.97139309  .00001139  00000+0  66171-3 0  9997", "line2": "2 30409  98.4735 340.8701 0167704 345.2506  79.1896 14.03755513965315"}}, "geometry": {"type": "Point", "coordinates": [-13.125600314872475, -29.769496690824457]}}]}